NORAD_CAT_ID,OBJECT_NAME,OBJECT_TYPE,EPOCH,MEAN_MOTION,ECCENTRICITY,INCLINATION,RA_OF_ASC_NODE,ARG_OF_PERICENTER,MEAN_ANOMALY,BSTAR,MEAN_MOTION_DOT,MEAN_MOTION_DDOT,TLE_LINE0,TLE_LINE1,TLE_LINE2,SEMIMAJOR_AXIS,PERIOD,APOGEE,PERIGEE,DECAYED
49433.0,STARLINK-3079,PAYLOAD,2024-06-07 13:19:11,15.08844364,0.0001274,53.2144,202.7997,93.3422,266.7716,0.00021711,3.17e-05,0.0,0 STARLINK-3079,1 49433U 21104AB  24159.55499808  .00003170  00000-0  21711-3 0  9996,2 49433  53.2144 202.7997 0001274  93.3422 266.7716 15.08844364143362,6917.867,95.437,540.613,538.851,0.0
49433.0,STARLINK-3079,PAYLOAD,2024-06-07 19:40:44,15.08850864,0.0001306,53.2147,201.6104,93.7656,266.3485,0.00030942,4.641e-05,0.0,0 STARLINK-3079,1 49433U 21104AB  24159.81995521  .00004641  00000-0  30942-3 0  9998,2 49433  53.2147 201.6104 0001306  93.7656 266.3485 15.08850864143408,6917.847,95.437,540.616,538.809,0.0
49433.0,STARLINK-3079,PAYLOAD,2024-06-08 09:59:11,15.0885268,0.0001427,53.2162,198.9343,88.7723,271.3433,-0.00018178,-3.181e-05,0.0,0 STARLINK-3079,1 49433U 21104AB  24160.41611063 -.00003181  00000-0 -18178-3 0  9999,2 49433  53.2162 198.9343 0001427  88.7723 271.3433 15.08852680143497,6917.842,95.437,540.694,538.719,0.0
49433.0,STARLINK-3079,PAYLOAD,2024-06-08 19:31:30,15.08854951,0.0001573,53.2165,197.1505,79.5934,280.5235,0.00021933,3.206e-05,0.0,0 STARLINK-3079,1 49433U 21104AB  24160.81354972  .00003206  00000-0  21933-3 0  9995,2 49433  53.2165 197.1505 0001573  79.5934 280.5235 15.08854951143557,6917.835,95.437,540.788,538.612,0.0
49433.0,STARLINK-3079,PAYLOAD,2024-06-09 01:53:03,15.08845248,0.0002546,53.2162,195.9613,80.293,279.835,0.00014638,2.042e-05,0.0,0 STARLINK-3079,1 49433U 21104AB  24161.07851645  .00002042  00000-0  14638-3 0  9994,2 49433  53.2162 195.9613 0002546  80.2930 279.8350 15.08845248143598,6917.864,95.437,541.491,537.968,0.0
49433.0,STARLINK-3079,PAYLOAD,2024-06-09 11:25:23,15.08829558,0.0001664,53.2162,194.177,81.8724,278.2457,-0.00012788,-2.322e-05,0.0,0 STARLINK-3079,1 49433U 21104AB  24161.47596227 -.00002322  00000-0 -12788-3 0  9997,2 49433  53.2162 194.1770 0001664  81.8724 278.2457 15.08829558143655,6917.912,95.438,540.928,538.626,0.0
49433.0,STARLINK-3079,PAYLOAD,2024-06-09 19:22:18,15.08834295,0.0001597,53.216,192.6904,80.9911,279.1262,7.2624e-07,-2.76e-06,0.0,0 STARLINK-3079,1 49433U 21104AB  24161.80716234 -.00000276  00000-0  72624-6 0  9999,2 49433  53.2160 192.6904 0001597  80.9911 279.1262 15.08834295143702,6917.898,95.438,540.868,538.658,0.0
49433.0,STARLINK-3079,PAYLOAD,2024-06-10 09:40:47,15.08841617,0.0001412,53.2147,190.0129,80.9958,279.1194,0.00033251,5.008e-05,0.0,0 STARLINK-3079,1 49433U 21104AB  24162.40332228  .00005008  00000-0  33251-3 0  9990,2 49433  53.2147 190.0129 0001412  80.9958 279.1194 15.08841617143794,6917.875,95.437,540.717,538.764,0.0
49433.0,STARLINK-3079,PAYLOAD,2024-06-11 07:56:10,15.08849776,0.0001432,53.2145,185.8497,79.6889,280.4264,0.000465,7.122e-05,0.0,0 STARLINK-3079,1 49433U 21104AB  24163.33068228  .00007122  00000-0  46500-3 0  9999,2 49433  53.2145 185.8497 0001432  79.6889 280.4264 15.08849776143935,6917.851,95.437,540.706,538.725,0.0
49433.0,STARLINK-3079,PAYLOAD,2024-06-12 06:11:34,15.08840811,0.0001516,53.2151,181.6885,77.3605,282.7557,6.3473e-05,7.22e-06,0.0,0 STARLINK-3079,1 49433U 21104AB  24164.25804289  .00000722  00000-0  63473-4 0  9994,2 49433  53.2151 181.6885 0001516  77.3605 282.7557 15.08840811144078,6917.878,95.438,540.792,538.694,0.0
49433.0,STARLINK-3079,PAYLOAD,2024-06-12 07:46:57,15.08842518,0.0001524,53.2158,181.39,86.2175,273.8991,8.8384e-05,1.119e-05,0.0,0 STARLINK-3079,1 49433U 21104AB  24164.32428220  .00001119  00000-0  88384-4 0  9998,2 49433  53.2158 181.3900 0001524  86.2175 273.8991 15.08842518144080,6917.873,95.437,540.792,538.683,0.0
49433.0,STARLINK-3079,PAYLOAD,2024-06-13 10:48:31,15.0883952,0.0001491,53.2169,176.3346,88.2434,271.8729,2.4533e-05,1.02e-06,0.0,0 STARLINK-3079,1 49433U 21104AB  24165.45036402  .00000102  00000-0  24533-4 0  9997,2 49433  53.2169 176.3346 0001491  88.2434 271.8729 15.08839520144258,6917.882,95.438,540.778,538.715,0.0
49433.0,STARLINK-3079,PAYLOAD,2024-06-14 10:39:18,15.08838223,0.0001381,53.2163,171.8738,85.7721,274.3429,6.6724e-05,7.74e-06,0.0,0 STARLINK-3079,1 49433U 21104AB  24166.44396424  .00000774  00000-0  66724-4 0  9993,2 49433  53.2163 171.8738 0001381  85.7721 274.3429 15.08838223144407,6917.886,95.438,540.706,538.795,0.0
49433.0,STARLINK-3079,PAYLOAD,2024-06-14 17:00:50,15.08840204,0.0001391,53.2165,170.6844,85.9403,274.1748,8.2878e-05,1.031e-05,0.0,0 STARLINK-3079,1 49433U 21104AB  24166.70892288  .00001031  00000-0  82878-4 0  9996,2 49433  53.2165 170.6844 0001391  85.9403 274.1748 15.08840204144442,6917.88,95.438,540.707,538.782,0.0
49433.0,STARLINK-3079,PAYLOAD,2024-06-15 07:19:19,15.08834007,0.0001446,53.2171,168.0089,88.6915,271.4243,4.3912e-05,4.11e-06,0.0,0 STARLINK-3079,1 49433U 21104AB  24167.30508933  .00000411  00000-0  43912-4 0  9991,2 49433  53.2171 168.0089 0001446  88.6915 271.4243 15.08834007144534,6917.899,95.438,540.764,538.763,0.0
49433.0,STARLINK-3079,PAYLOAD,2024-06-15 16:51:38,15.08837306,0.0001466,53.2173,166.2249,88.9586,271.1574,5.2079e-05,5.41e-06,0.0,0 STARLINK-3079,1 49433U 21104AB  24167.70252833  .00000541  00000-0  52079-4 0  9998,2 49433  53.2173 166.2249 0001466  88.9586 271.1574 15.08837306144598,6917.889,95.438,540.768,538.739,0.0
49433.0,STARLINK-3079,PAYLOAD,2024-06-16 10:20:52,15.08843148,0.0001461,53.217,162.9539,92.2774,267.8385,9.6883e-05,1.254e-05,0.0,0 STARLINK-3079,1 49433U 21104AB  24168.43116414  .00001254  00000-0  96883-4 0  9996,2 49433  53.2170 162.9539 0001461  92.2774 267.8385 15.08843148144708,6917.871,95.437,540.746,538.725,0.0
49433.0,STARLINK-3079,PAYLOAD,2024-06-16 16:42:25,15.08844937,0.0001448,53.2169,161.7641,88.2683,271.8475,8.9256e-05,1.133e-05,0.0,0 STARLINK-3079,1 49433U 21104AB  24168.69612298  .00001133  00000-0  89256-4 0  9997,2 49433  53.2169 161.7641 0001448  88.2683 271.8475 15.08844937144742,6917.865,95.437,540.732,538.729,0.0
49433.0,STARLINK-3079,PAYLOAD,2024-06-17 16:33:12,15.08841156,0.0001457,53.2168,157.3034,85.9057,274.2102,8.3635e-05,1.043e-05,0.0,0 STARLINK-3079,1 49433U 21104AB  24169.68972620  .00001043  00000-0  83635-4 0  9990,2 49433  53.2168 157.3034 0001457  85.9057 274.2102 15.08841156144897,6917.877,95.437,540.75,538.734,0.0
49433.0,STARLINK-3079,PAYLOAD,2024-06-18 08:27:03,15.08843486,0.0001433,53.2162,154.3298,88.3486,271.7671,3.8654e-05,3.27e-06,0.0,0 STARLINK-3079,1 49433U 21104AB  24170.35212545  .00000327  00000-0  38654-4 0  9994,2 49433  53.2162 154.3298 0001433  88.3486 271.7671 15.08843486144999,6917.87,95.437,540.726,538.743,0.0
49433.0,STARLINK-3079,PAYLOAD,2024-06-19 05:07:04,15.088397,0.0001398,53.2162,150.4628,91.2572,268.858,6.9093e-05,8.12e-06,0.0,0 STARLINK-3079,1 49433U 21104AB  24171.21324560  .00000812  00000-0  69093-4 0  9991,2 49433  53.2162 150.4628 0001398  91.2572 268.8580 15.08839700145128,6917.881,95.438,540.713,538.779,0.0
49433.0,STARLINK-3079,PAYLOAD,2024-06-19 16:14:46,15.08841801,0.0001373,53.2171,148.3802,95.0936,265.0212,5.8995e-05,6.51e-06,0.0,0 STARLINK-3079,1 49433U 21104AB  24171.67692386  .00000651  00000-0  58995-4 0  9995,2 49433  53.2171 148.3802 0001373  95.0936 265.0212 15.08841801145190,6917.875,95.437,540.69,538.79,0.0
49433.0,STARLINK-3079,PAYLOAD,2024-06-20 04:57:51,15.08836361,0.0001528,53.2183,146.0021,99.8862,260.2303,8.3809e-06,-1.55e-06,0.0,0 STARLINK-3079,1 49433U 21104AB  24172.20684962 -.00000155  00000-0  83809-5 0  9999,2 49433  53.2183 146.0021 0001528  99.8862 260.2303 15.08836361145275,6917.892,95.438,540.814,538.699,0.0
49433.0,STARLINK-3079,PAYLOAD,2024-06-20 22:27:06,15.08837768,0.000152,53.2185,142.7317,99.1288,260.9876,3.3741e-05,2.49e-06,0.0,0 STARLINK-3079,1 49433U 21104AB  24172.93548901  .00000249  00000-0  33741-4 0  9993,2 49433  53.2185 142.7317 0001520  99.1288 260.9876 15.08837768145381,6917.887,95.438,540.804,538.701,0.0
49433.0,STARLINK-3079,PAYLOAD,2024-06-21 03:13:15,15.08836109,0.0001496,53.2184,141.8396,99.2656,260.8505,1.5775e-05,-3.7e-07,0.0,0 STARLINK-3079,1 49433U 21104AB  24173.13421077 -.00000037  00000-0  15775-4 0  9993,2 49433  53.2184 141.8396 0001496  99.2656 260.8505 15.08836109145419,6917.892,95.438,540.792,538.722,0.0
49433.0,STARLINK-3079,PAYLOAD,2024-06-21 22:17:53,15.08835317,0.000139,53.2174,138.2706,105.4219,254.6926,5.4758e-05,5.84e-06,0.0,0 STARLINK-3079,1 49433U 21104AB  24173.92909152  .00000584  00000-0  54758-4 0  9995,2 49433  53.2174 138.2706 0001390 105.4219 254.6926 15.08835317145532,6917.895,95.438,540.721,538.798,0.0
49433.0,STARLINK-3079,PAYLOAD,2024-06-22 03:04:03,15.08834357,0.0001563,53.2161,137.3753,115.1793,244.9361,1.7146e-05,-1.5e-07,0.0,0 STARLINK-3079,1 49433U 21104AB  24174.12781336 -.00000015  00000-0  17146-4 0  9990,2 49433  53.2161 137.3753 0001563 115.1793 244.9361 15.08834357145568,6917.898,95.438,540.844,538.681,0.0
49433.0,STARLINK-3079,PAYLOAD,2024-06-22 22:08:40,15.08836236,0.0001306,53.2148,133.8049,101.7114,258.4025,3.2816e-05,2.34e-06,0.0,0 STARLINK-3079,1 49433U 21104AB  24174.92269470  .00000234  00000-0  32816-4 0  9991,2 49433  53.2148 133.8049 0001306 101.7114 258.4025 15.08836236145683,6917.892,95.438,540.66,538.853,0.0
49433.0,STARLINK-3079,PAYLOAD,2024-06-23 06:05:36,15.08836698,0.0001232,53.2163,132.3231,83.3646,276.7487,5.2638e-05,5.5e-06,0.0,0 STARLINK-3079,1 49433U 21104AB  24175.25389592  .00000550  00000-0  52638-4 0  9991,2 49433  53.2163 132.3231 0001232  83.3646 276.7487 15.08836698145733,6917.89,95.438,540.608,538.903,0.0
49433.0,STARLINK-3079,PAYLOAD,2024-06-24 05:56:22,15.08846372,0.0001204,53.2158,127.8619,115.784,244.3277,0.00015652,2.204e-05,0.0,0 STARLINK-3079,1 49433U 21104AB  24176.24748605  .00002204  00000-0  15652-3 0  9997,2 49433  53.2158 127.8619 0001204 115.7840 244.3277 15.08846372145885,6917.861,95.437,540.559,538.893,0.0
